{
    "links": {
        "self": "http://www.neowsapp.com/rest/v1/neo/3387455?api_key=iIulBulltgU6a56xZRHN4H3l9WmuAYTsLGpBGhQ2"
    },
    "id": "3387455",
    "neo_reference_id": "3387455",
    "name": "(2007 TC1)",
    "designation": "2007 TC1",
    "nasa_jpl_url": "http://ssd.jpl.nasa.gov/sbdb.cgi?sstr=3387455",
    "absolute_magnitude_h": 23.7,
    "estimated_diameter": {
        "kilometers": {
            "estimated_diameter_min": 0.0483676488,
            "estimated_diameter_max": 0.1081533507
        },
        "meters": {
            "estimated_diameter_min": 48.3676488219,
            "estimated_diameter_max": 108.1533506775
        },
        "miles": {
            "estimated_diameter_min": 0.0300542543,
            "estimated_diameter_max": 0.0672033557
        },
        "feet": {
            "estimated_diameter_min": 158.6865169607,
            "estimated_diameter_max": 354.8338390368
        }
    },
    "is_potentially_hazardous_asteroid": false,
    "close_approach_data": [
        {
            "close_approach_date": "2007-04-13",
            "close_approach_date_full": "2007-Apr-13 19:39",
            "epoch_date_close_approach": 1176493140000,
            "relative_velocity": {
                "kilometers_per_second": "12.6273224555",
                "kilometers_per_hour": "45458.360839958",
                "miles_per_hour": "28246.0576008061"
            },
            "miss_distance": {
                "astronomical": "0.2916249315",
                "lunar": "113.4420983535",
                "kilometers": "43626468.591295905",
                "miles": "27108230.557277289"
            },
            "orbiting_body": "Earth"
        },
        {
            "close_approach_date": "2007-09-28",
            "close_approach_date_full": "2007-Sep-28 11:11",
            "epoch_date_close_approach": 1190977860000,
            "relative_velocity": {
                "kilometers_per_second": "13.707287898",
                "kilometers_per_hour": "49346.2364327518",
                "miles_per_hour": "30661.8322990062"
            },
            "miss_distance": {
                "astronomical": "0.0741396793",
                "lunar": "28.8403352477",
                "kilometers": "11091138.105763091",
                "miles": "6891713.6459130158"
            },
            "orbiting_body": "Earth"
        }
    ],
    "orbital_data": {
        "orbit_id": "8",
        "orbit_determination_date": "2017-04-06 09:05:53",
        "first_observation_date": "2007-10-04",
        "last_observation_date": "2007-10-08",
        "data_arc_in_days": 4,
        "observations_used": 28,
        "orbit_uncertainty": "8",
        "minimum_orbit_intersection": ".0732896",
        "jupiter_tisserand_invariant": "4.992",
        "epoch_osculation": "2454379.5",
        "eccentricity": ".2377124500403805",
        "semi_major_axis": "1.264086689116945",
        "inclination": "23.83760565392017",
        "ascending_node_longitude": "189.3755179266982",
        "orbital_period": "519.115162618572",
        "perihelion_distance": ".9635975451835235",
        "perihelion_argument": "115.0506399918794",
        "aphelion_distance": "1.564575833050367",
        "perihelion_time": "2454315.675485160897",
        "mean_anomaly": "44.26151843875087",
        "mean_motion": ".6934877382198825",
        "equinox": "J2000",
        "orbit_class": {
            "orbit_class_type": "APO",
            "orbit_class_description": "Near-Earth asteroid orbits which cross the Earth’s orbit similar to that of 1862 Apollo",
            "orbit_class_range": "a (semi-major axis) > 1.0 AU; q (perihelion) < 1.017 AU"
        }
    },
    "is_sentry_object": false
}